<?xml version="1.0" encoding="UTF-8"?>
<gpx version="1.1" creator="Ultrainfo (converted from the organizer's Google My Maps course map)" xmlns="http://www.topografix.com/GPX/1/1">
  <metadata>
    <name>Southern Tour Ultra 10-mile loop</name>
    <desc>Track and waypoints exported 2026-08-13 from the organizer-published Google My Maps "10 mile course" (mid=1TXRiHGQ6AkgURW1N5CQgnLt362qD5ILo) linked from the official Course page. The 100-mile race runs 10 laps of this loop. My Maps stores no elevation; track points carry none.</desc>
    <link href="https://runsignup.com/Race/SouthernTourUltra/Page/Course"><text>Southern Tour Ultra Course page</text></link>
  </metadata>
  <wpt lat="34.3307379" lon="-77.7396018">
    <name>Start/Finish Aid Station (Event Field)</name>
  </wpt>
  <wpt lat="34.3246877" lon="-77.7297474">
    <name>Mid-Loop Aid Station (Station 1)</name>
  </wpt>
  <trk>
    <name>Southern Tour Ultra 10-mile loop (organizer My Maps export)</name>
    <trkseg>
      <trkpt lat="34.3308095" lon="-77.7396488"/>
      <trkpt lat="34.3311606" lon="-77.7396436"/>
      <trkpt lat="34.3312639" lon="-77.7396456"/>
      <trkpt lat="34.3312387" lon="-77.7386899"/>
      <trkpt lat="34.3313347" lon="-77.7386289"/>
      <trkpt lat="34.3313816" lon="-77.7384582"/>
      <trkpt lat="34.3313721" lon="-77.7380789"/>
      <trkpt lat="34.3313375" lon="-77.7375139"/>
      <trkpt lat="34.3312691" lon="-77.7361944"/>
      <trkpt lat="34.3312691" lon="-77.7355586"/>
      <trkpt lat="34.3312757" lon="-77.7351081"/>
      <trkpt lat="34.3312513" lon="-77.7347433"/>
      <trkpt lat="34.3311384" lon="-77.7341908"/>
      <trkpt lat="34.3310387" lon="-77.7337294"/>
      <trkpt lat="34.3310099" lon="-77.7336462"/>
      <trkpt lat="34.3309811" lon="-77.7334343"/>
      <trkpt lat="34.3310095" lon="-77.7329458"/>
      <trkpt lat="34.3310003" lon="-77.7327092"/>
      <trkpt lat="34.3309058" lon="-77.7324420"/>
      <trkpt lat="34.3307973" lon="-77.7320610"/>
      <trkpt lat="34.3306954" lon="-77.7314925"/>
      <trkpt lat="34.3306511" lon="-77.7308084"/>
      <trkpt lat="34.3306466" lon="-77.7303659"/>
      <trkpt lat="34.3306976" lon="-77.7298723"/>
      <trkpt lat="34.3307840" lon="-77.7295318"/>
      <trkpt lat="34.3307795" lon="-77.7291697"/>
      <trkpt lat="34.3307795" lon="-77.7287458"/>
      <trkpt lat="34.3307968" lon="-77.7284620"/>
      <trkpt lat="34.3308443" lon="-77.7282215"/>
      <trkpt lat="34.3308814" lon="-77.7280136"/>
      <trkpt lat="34.3308261" lon="-77.7277722"/>
      <trkpt lat="34.3310210" lon="-77.7273752"/>
      <trkpt lat="34.3310827" lon="-77.7272292"/>
      <trkpt lat="34.3311551" lon="-77.7270174"/>
      <trkpt lat="34.3312231" lon="-77.7268369"/>
      <trkpt lat="34.3312735" lon="-77.7267154"/>
      <trkpt lat="34.3314193" lon="-77.7266266"/>
      <trkpt lat="34.3314685" lon="-77.7265781"/>
      <trkpt lat="34.3315162" lon="-77.7263738"/>
      <trkpt lat="34.3314662" lon="-77.7262674"/>
      <trkpt lat="34.3313856" lon="-77.7262021"/>
      <trkpt lat="34.3313461" lon="-77.7261620"/>
      <trkpt lat="34.3313846" lon="-77.7260331"/>
      <trkpt lat="34.3314152" lon="-77.7259241"/>
      <trkpt lat="34.3314822" lon="-77.7258939"/>
      <trkpt lat="34.3315550" lon="-77.7257890"/>
      <trkpt lat="34.3315082" lon="-77.7256834"/>
      <trkpt lat="34.3314331" lon="-77.7256073"/>
      <trkpt lat="34.3313017" lon="-77.7255085"/>
      <trkpt lat="34.3312064" lon="-77.7254097"/>
      <trkpt lat="34.3311939" lon="-77.7252761"/>
      <trkpt lat="34.3311906" lon="-77.7248900"/>
      <trkpt lat="34.3311362" lon="-77.7246232"/>
      <trkpt lat="34.3311319" lon="-77.7244249"/>
      <trkpt lat="34.3311025" lon="-77.7242975"/>
      <trkpt lat="34.3310228" lon="-77.7241254"/>
      <trkpt lat="34.3309944" lon="-77.7239994"/>
      <trkpt lat="34.3310050" lon="-77.7238992"/>
      <trkpt lat="34.3310499" lon="-77.7238044"/>
      <trkpt lat="34.3310419" lon="-77.7237216"/>
      <trkpt lat="34.3309951" lon="-77.7236668"/>
      <trkpt lat="34.3308873" lon="-77.7235290"/>
      <trkpt lat="34.3308586" lon="-77.7234380"/>
      <trkpt lat="34.3308278" lon="-77.7233939"/>
      <trkpt lat="34.3307578" lon="-77.7233512"/>
      <trkpt lat="34.3307022" lon="-77.7233709"/>
      <trkpt lat="34.3305736" lon="-77.7234161"/>
      <trkpt lat="34.3304821" lon="-77.7234501"/>
      <trkpt lat="34.3304492" lon="-77.7234414"/>
      <trkpt lat="34.3304207" lon="-77.7232525"/>
      <trkpt lat="34.3304717" lon="-77.7229576"/>
      <trkpt lat="34.3305425" lon="-77.7226947"/>
      <trkpt lat="34.3305606" lon="-77.7224757"/>
      <trkpt lat="34.3306732" lon="-77.7221073"/>
      <trkpt lat="34.3307189" lon="-77.7218788"/>
      <trkpt lat="34.3307679" lon="-77.7216992"/>
      <trkpt lat="34.3307967" lon="-77.7215305"/>
      <trkpt lat="34.3308490" lon="-77.7213346"/>
      <trkpt lat="34.3308830" lon="-77.7211902"/>
      <trkpt lat="34.3309662" lon="-77.7210615"/>
      <trkpt lat="34.3311243" lon="-77.7209238"/>
      <trkpt lat="34.3312275" lon="-77.7209196"/>
      <trkpt lat="34.3313797" lon="-77.7209267"/>
      <trkpt lat="34.3315132" lon="-77.7209330"/>
      <trkpt lat="34.3316131" lon="-77.7209620"/>
      <trkpt lat="34.3317375" lon="-77.7210415"/>
      <trkpt lat="34.3318696" lon="-77.7211499"/>
      <trkpt lat="34.3319870" lon="-77.7211755"/>
      <trkpt lat="34.3322338" lon="-77.7211680"/>
      <trkpt lat="34.3325028" lon="-77.7211861"/>
      <trkpt lat="34.3326866" lon="-77.7212249"/>
      <trkpt lat="34.3328505" lon="-77.7212892"/>
      <trkpt lat="34.3329856" lon="-77.7214019"/>
      <trkpt lat="34.3331805" lon="-77.7215467"/>
      <trkpt lat="34.3333001" lon="-77.7216084"/>
      <trkpt lat="34.3333754" lon="-77.7216540"/>
      <trkpt lat="34.3334374" lon="-77.7217617"/>
      <trkpt lat="34.3334661" lon="-77.7218631"/>
      <trkpt lat="34.3334320" lon="-77.7220393"/>
      <trkpt lat="34.3334338" lon="-77.7222587"/>
      <trkpt lat="34.3335050" lon="-77.7224899"/>
      <trkpt lat="34.3335400" lon="-77.7226532"/>
      <trkpt lat="34.3335836" lon="-77.7227591"/>
      <trkpt lat="34.3335930" lon="-77.7229977"/>
      <trkpt lat="34.3336762" lon="-77.7233103"/>
      <trkpt lat="34.3337365" lon="-77.7234108"/>
      <trkpt lat="34.3339247" lon="-77.7236335"/>
      <trkpt lat="34.3340983" lon="-77.7239015"/>
      <trkpt lat="34.3342848" lon="-77.7241185"/>
      <trkpt lat="34.3343965" lon="-77.7242906"/>
      <trkpt lat="34.3344380" lon="-77.7244637"/>
      <trkpt lat="34.3344605" lon="-77.7246364"/>
      <trkpt lat="34.3345183" lon="-77.7248244"/>
      <trkpt lat="34.3346689" lon="-77.7250416"/>
      <trkpt lat="34.3348065" lon="-77.7251644"/>
      <trkpt lat="34.3348857" lon="-77.7252908"/>
      <trkpt lat="34.3350104" lon="-77.7256896"/>
      <trkpt lat="34.3351540" lon="-77.7258706"/>
      <trkpt lat="34.3354175" lon="-77.7262139"/>
      <trkpt lat="34.3355748" lon="-77.7263452"/>
      <trkpt lat="34.3357896" lon="-77.7265116"/>
      <trkpt lat="34.3359425" lon="-77.7266108"/>
      <trkpt lat="34.3361019" lon="-77.7268388"/>
      <trkpt lat="34.3362791" lon="-77.7270239"/>
      <trkpt lat="34.3364319" lon="-77.7271070"/>
      <trkpt lat="34.3366047" lon="-77.7270856"/>
      <trkpt lat="34.3367819" lon="-77.7270480"/>
      <trkpt lat="34.3369081" lon="-77.7270319"/>
      <trkpt lat="34.3370344" lon="-77.7270695"/>
      <trkpt lat="34.3371814" lon="-77.7272961"/>
      <trkpt lat="34.3372780" lon="-77.7274181"/>
      <trkpt lat="34.3374286" lon="-77.7276006"/>
      <trkpt lat="34.3375681" lon="-77.7277105"/>
      <trkpt lat="34.3377652" lon="-77.7278768"/>
      <trkpt lat="34.3379491" lon="-77.7280324"/>
      <trkpt lat="34.3381462" lon="-77.7281933"/>
      <trkpt lat="34.3382680" lon="-77.7282550"/>
      <trkpt lat="34.3386356" lon="-77.7283918"/>
      <trkpt lat="34.3387707" lon="-77.7284508"/>
      <trkpt lat="34.3389966" lon="-77.7285124"/>
      <trkpt lat="34.3391893" lon="-77.7285258"/>
      <trkpt lat="34.3393997" lon="-77.7285580"/>
      <trkpt lat="34.3396699" lon="-77.7286626"/>
      <trkpt lat="34.3398316" lon="-77.7287566"/>
      <trkpt lat="34.3400431" lon="-77.7289012"/>
      <trkpt lat="34.3401244" lon="-77.7290292"/>
      <trkpt lat="34.3401505" lon="-77.7291670"/>
      <trkpt lat="34.3400818" lon="-77.7292294"/>
      <trkpt lat="34.3399025" lon="-77.7292072"/>
      <trkpt lat="34.3397024" lon="-77.7292663"/>
      <trkpt lat="34.3393045" lon="-77.7296846"/>
      <trkpt lat="34.3390586" lon="-77.7299636"/>
      <trkpt lat="34.3386999" lon="-77.7303069"/>
      <trkpt lat="34.3385448" lon="-77.7304062"/>
      <trkpt lat="34.3383034" lon="-77.7303954"/>
      <trkpt lat="34.3380952" lon="-77.7302989"/>
      <trkpt lat="34.3379690" lon="-77.7303767"/>
      <trkpt lat="34.3376456" lon="-77.7305054"/>
      <trkpt lat="34.3373909" lon="-77.7305617"/>
      <trkpt lat="34.3370720" lon="-77.7306100"/>
      <trkpt lat="34.3367221" lon="-77.7307039"/>
      <trkpt lat="34.3365826" lon="-77.7308312"/>
      <trkpt lat="34.3361661" lon="-77.7311706"/>
      <trkpt lat="34.3360621" lon="-77.7314361"/>
      <trkpt lat="34.3358849" lon="-77.7316294"/>
      <trkpt lat="34.3357431" lon="-77.7318143"/>
      <trkpt lat="34.3356966" lon="-77.7319778"/>
      <trkpt lat="34.3356164" lon="-77.7322833"/>
      <trkpt lat="34.3355198" lon="-77.7327667"/>
      <trkpt lat="34.3355157" lon="-77.7330060"/>
      <trkpt lat="34.3356703" lon="-77.7333066"/>
      <trkpt lat="34.3358142" lon="-77.7334837"/>
      <trkpt lat="34.3359560" lon="-77.7337761"/>
      <trkpt lat="34.3361350" lon="-77.7341751"/>
      <trkpt lat="34.3362107" lon="-77.7343876"/>
      <trkpt lat="34.3362162" lon="-77.7345101"/>
      <trkpt lat="34.3362720" lon="-77.7346792"/>
      <trkpt lat="34.3364841" lon="-77.7350446"/>
      <trkpt lat="34.3366879" lon="-77.7353105"/>
      <trkpt lat="34.3368552" lon="-77.7354497"/>
      <trkpt lat="34.3370099" lon="-77.7356332"/>
      <trkpt lat="34.3370774" lon="-77.7356625"/>
      <trkpt lat="34.3373756" lon="-77.7356132"/>
      <trkpt lat="34.3376415" lon="-77.7354919"/>
      <trkpt lat="34.3378699" lon="-77.7353822"/>
      <trkpt lat="34.3380689" lon="-77.7352245"/>
      <trkpt lat="34.3383214" lon="-77.7350233"/>
      <trkpt lat="34.3385518" lon="-77.7349773"/>
      <trkpt lat="34.3390899" lon="-77.7348973"/>
      <trkpt lat="34.3394496" lon="-77.7348446"/>
      <trkpt lat="34.3398650" lon="-77.7347578"/>
      <trkpt lat="34.3399869" lon="-77.7347176"/>
      <trkpt lat="34.3401392" lon="-77.7347187"/>
      <trkpt lat="34.3402138" lon="-77.7348448"/>
      <trkpt lat="34.3403257" lon="-77.7349214"/>
      <trkpt lat="34.3404586" lon="-77.7349375"/>
      <trkpt lat="34.3405148" lon="-77.7349430"/>
      <trkpt lat="34.3406067" lon="-77.7349845"/>
      <trkpt lat="34.3407642" lon="-77.7349053"/>
      <trkpt lat="34.3408154" lon="-77.7348767"/>
      <trkpt lat="34.3409192" lon="-77.7348248"/>
      <trkpt lat="34.3409852" lon="-77.7346916"/>
      <trkpt lat="34.3410378" lon="-77.7345659"/>
      <trkpt lat="34.3411235" lon="-77.7344870"/>
      <trkpt lat="34.3412957" lon="-77.7345218"/>
      <trkpt lat="34.3414618" lon="-77.7346076"/>
      <trkpt lat="34.3416116" lon="-77.7347956"/>
      <trkpt lat="34.3417785" lon="-77.7348919"/>
      <trkpt lat="34.3419218" lon="-77.7349519"/>
      <trkpt lat="34.3421619" lon="-77.7348791"/>
      <trkpt lat="34.3422224" lon="-77.7348636"/>
      <trkpt lat="34.3423787" lon="-77.7348946"/>
      <trkpt lat="34.3425586" lon="-77.7349696"/>
      <trkpt lat="34.3427220" lon="-77.7350797"/>
      <trkpt lat="34.3428890" lon="-77.7352667"/>
      <trkpt lat="34.3430232" lon="-77.7354336"/>
      <trkpt lat="34.3431092" lon="-77.7356137"/>
      <trkpt lat="34.3431809" lon="-77.7356943"/>
      <trkpt lat="34.3432494" lon="-77.7357862"/>
      <trkpt lat="34.3433487" lon="-77.7360050"/>
      <trkpt lat="34.3434905" lon="-77.7360882"/>
      <trkpt lat="34.3437872" lon="-77.7361391"/>
      <trkpt lat="34.3439533" lon="-77.7361740"/>
      <trkpt lat="34.3442169" lon="-77.7359460"/>
      <trkpt lat="34.3446173" lon="-77.7355539"/>
      <trkpt lat="34.3445908" lon="-77.7354182"/>
      <trkpt lat="34.3443270" lon="-77.7350036"/>
      <trkpt lat="34.3440489" lon="-77.7345346"/>
      <trkpt lat="34.3438784" lon="-77.7342802"/>
      <trkpt lat="34.3435240" lon="-77.7338500"/>
      <trkpt lat="34.3433049" lon="-77.7335315"/>
      <trkpt lat="34.3430807" lon="-77.7332531"/>
      <trkpt lat="34.3428196" lon="-77.7330595"/>
      <trkpt lat="34.3425341" lon="-77.7326731"/>
      <trkpt lat="34.3422918" lon="-77.7321723"/>
      <trkpt lat="34.3419059" lon="-77.7314504"/>
      <trkpt lat="34.3416163" lon="-77.7308936"/>
      <trkpt lat="34.3412687" lon="-77.7304641"/>
      <trkpt lat="34.3408809" lon="-77.7300612"/>
      <trkpt lat="34.3404720" lon="-77.7294998"/>
      <trkpt lat="34.3402509" lon="-77.7291589"/>
      <trkpt lat="34.3400819" lon="-77.7287986"/>
      <trkpt lat="34.3399126" lon="-77.7286589"/>
      <trkpt lat="34.3394026" lon="-77.7284996"/>
      <trkpt lat="34.3388962" lon="-77.7283638"/>
      <trkpt lat="34.3382153" lon="-77.7281158"/>
      <trkpt lat="34.3377144" lon="-77.7277159"/>
      <trkpt lat="34.3361019" lon="-77.7268388"/>
      <trkpt lat="34.3372144" lon="-77.7271692"/>
      <trkpt lat="34.3370676" lon="-77.7270017"/>
      <trkpt lat="34.3369254" lon="-77.7269205"/>
      <trkpt lat="34.3367072" lon="-77.7269593"/>
      <trkpt lat="34.3364575" lon="-77.7270199"/>
      <trkpt lat="34.3363219" lon="-77.7269835"/>
      <trkpt lat="34.3360298" lon="-77.7266302"/>
      <trkpt lat="34.3357870" lon="-77.7263812"/>
      <trkpt lat="34.3354074" lon="-77.7260656"/>
      <trkpt lat="34.3350676" lon="-77.7256167"/>
      <trkpt lat="34.3349296" lon="-77.7252250"/>
      <trkpt lat="34.3345183" lon="-77.7248244"/>
      <trkpt lat="34.3346254" lon="-77.7248529"/>
      <trkpt lat="34.3345155" lon="-77.7245548"/>
      <trkpt lat="34.3344674" lon="-77.7242615"/>
      <trkpt lat="34.3341897" lon="-77.7238850"/>
      <trkpt lat="34.3340031" lon="-77.7236528"/>
      <trkpt lat="34.3338022" lon="-77.7233799"/>
      <trkpt lat="34.3336796" lon="-77.7231062"/>
      <trkpt lat="34.3334338" lon="-77.7222587"/>
      <trkpt lat="34.3334795" lon="-77.7222404"/>
      <trkpt lat="34.3334763" lon="-77.7220023"/>
      <trkpt lat="34.3334889" lon="-77.7217442"/>
      <trkpt lat="34.3334550" lon="-77.7216605"/>
      <trkpt lat="34.3333109" lon="-77.7215295"/>
      <trkpt lat="34.3329968" lon="-77.7213461"/>
      <trkpt lat="34.3327984" lon="-77.7212142"/>
      <trkpt lat="34.3324857" lon="-77.7211209"/>
      <trkpt lat="34.3323210" lon="-77.7210930"/>
      <trkpt lat="34.3320351" lon="-77.7211024"/>
      <trkpt lat="34.3318649" lon="-77.7210590"/>
      <trkpt lat="34.3317001" lon="-77.7209154"/>
      <trkpt lat="34.3314737" lon="-77.7208700"/>
      <trkpt lat="34.3312690" lon="-77.7208711"/>
      <trkpt lat="34.3310526" lon="-77.7209189"/>
      <trkpt lat="34.3308798" lon="-77.7210644"/>
      <trkpt lat="34.3308510" lon="-77.7211823"/>
      <trkpt lat="34.3307719" lon="-77.7210754"/>
      <trkpt lat="34.3306202" lon="-77.7205255"/>
      <trkpt lat="34.3304931" lon="-77.7202279"/>
      <trkpt lat="34.3303228" lon="-77.7200749"/>
      <trkpt lat="34.3300257" lon="-77.7198099"/>
      <trkpt lat="34.3299341" lon="-77.7196151"/>
      <trkpt lat="34.3299231" lon="-77.7192935"/>
      <trkpt lat="34.3299359" lon="-77.7190914"/>
      <trkpt lat="34.3298587" lon="-77.7189633"/>
      <trkpt lat="34.3297558" lon="-77.7189078"/>
      <trkpt lat="34.3296316" lon="-77.7188352"/>
      <trkpt lat="34.3295176" lon="-77.7186410"/>
      <trkpt lat="34.3294996" lon="-77.7184570"/>
      <trkpt lat="34.3294690" lon="-77.7183150"/>
      <trkpt lat="34.3293987" lon="-77.7182365"/>
      <trkpt lat="34.3292674" lon="-77.7182727"/>
      <trkpt lat="34.3291523" lon="-77.7183504"/>
      <trkpt lat="34.3290819" lon="-77.7184385"/>
      <trkpt lat="34.3289883" lon="-77.7184627"/>
      <trkpt lat="34.3289328" lon="-77.7184500"/>
      <trkpt lat="34.3289083" lon="-77.7186234"/>
      <trkpt lat="34.3290090" lon="-77.7202228"/>
      <trkpt lat="34.3290178" lon="-77.7207939"/>
      <trkpt lat="34.3290406" lon="-77.7213963"/>
      <trkpt lat="34.3290238" lon="-77.7215112"/>
      <trkpt lat="34.3290968" lon="-77.7216901"/>
      <trkpt lat="34.3291149" lon="-77.7218478"/>
      <trkpt lat="34.3291875" lon="-77.7224525"/>
      <trkpt lat="34.3292729" lon="-77.7231440"/>
      <trkpt lat="34.3293378" lon="-77.7235237"/>
      <trkpt lat="34.3293752" lon="-77.7238499"/>
      <trkpt lat="34.3295999" lon="-77.7239925"/>
      <trkpt lat="34.3299671" lon="-77.7241587"/>
      <trkpt lat="34.3300518" lon="-77.7242231"/>
      <trkpt lat="34.3300661" lon="-77.7244128"/>
      <trkpt lat="34.3300525" lon="-77.7244858"/>
      <trkpt lat="34.3300300" lon="-77.7245227"/>
      <trkpt lat="34.3299935" lon="-77.7246034"/>
      <trkpt lat="34.3300223" lon="-77.7247546"/>
      <trkpt lat="34.3301164" lon="-77.7248032"/>
      <trkpt lat="34.3301354" lon="-77.7248959"/>
      <trkpt lat="34.3300792" lon="-77.7251528"/>
      <trkpt lat="34.3299877" lon="-77.7255616"/>
      <trkpt lat="34.3299859" lon="-77.7257812"/>
      <trkpt lat="34.3300444" lon="-77.7259907"/>
      <trkpt lat="34.3301670" lon="-77.7261938"/>
      <trkpt lat="34.3301222" lon="-77.7262969"/>
      <trkpt lat="34.3300217" lon="-77.7263631"/>
      <trkpt lat="34.3298930" lon="-77.7264264"/>
      <trkpt lat="34.3298167" lon="-77.7265547"/>
      <trkpt lat="34.3298004" lon="-77.7267336"/>
      <trkpt lat="34.3297699" lon="-77.7269090"/>
      <trkpt lat="34.3297229" lon="-77.7270155"/>
      <trkpt lat="34.3295753" lon="-77.7271888"/>
      <trkpt lat="34.3292609" lon="-77.7272473"/>
      <trkpt lat="34.3290375" lon="-77.7273740"/>
      <trkpt lat="34.3289504" lon="-77.7275141"/>
      <trkpt lat="34.3288147" lon="-77.7276407"/>
      <trkpt lat="34.3286118" lon="-77.7276512"/>
      <trkpt lat="34.3284169" lon="-77.7275759"/>
      <trkpt lat="34.3281852" lon="-77.7276239"/>
      <trkpt lat="34.3280683" lon="-77.7277163"/>
      <trkpt lat="34.3279428" lon="-77.7277693"/>
      <trkpt lat="34.3278101" lon="-77.7277307"/>
      <trkpt lat="34.3276795" lon="-77.7277426"/>
      <trkpt lat="34.3276323" lon="-77.7276362"/>
      <trkpt lat="34.3276096" lon="-77.7275169"/>
      <trkpt lat="34.3274129" lon="-77.7274616"/>
      <trkpt lat="34.3272687" lon="-77.7274329"/>
      <trkpt lat="34.3271810" lon="-77.7274969"/>
      <trkpt lat="34.3270303" lon="-77.7275901"/>
      <trkpt lat="34.3268920" lon="-77.7276622"/>
      <trkpt lat="34.3268315" lon="-77.7277988"/>
      <trkpt lat="34.3267449" lon="-77.7278516"/>
      <trkpt lat="34.3266659" lon="-77.7278831"/>
      <trkpt lat="34.3265603" lon="-77.7278079"/>
      <trkpt lat="34.3264578" lon="-77.7277343"/>
      <trkpt lat="34.3263288" lon="-77.7277534"/>
      <trkpt lat="34.3262629" lon="-77.7278199"/>
      <trkpt lat="34.3261484" lon="-77.7278142"/>
      <trkpt lat="34.3259869" lon="-77.7278087"/>
      <trkpt lat="34.3257788" lon="-77.7279248"/>
      <trkpt lat="34.3256017" lon="-77.7280379"/>
      <trkpt lat="34.3254351" lon="-77.7282551"/>
      <trkpt lat="34.3253000" lon="-77.7285707"/>
      <trkpt lat="34.3252575" lon="-77.7287704"/>
      <trkpt lat="34.3251808" lon="-77.7288418"/>
      <trkpt lat="34.3249851" lon="-77.7289361"/>
      <trkpt lat="34.3247670" lon="-77.7290448"/>
      <trkpt lat="34.3246609" lon="-77.7291975"/>
      <trkpt lat="34.3245929" lon="-77.7294471"/>
      <trkpt lat="34.3246701" lon="-77.7296401"/>
      <trkpt lat="34.3246931" lon="-77.7297685"/>
      <trkpt lat="34.3245667" lon="-77.7296860"/>
      <trkpt lat="34.3239870" lon="-77.7292604"/>
      <trkpt lat="34.3235992" lon="-77.7288817"/>
      <trkpt lat="34.3230344" lon="-77.7284510"/>
      <trkpt lat="34.3227558" lon="-77.7282314"/>
      <trkpt lat="34.3225166" lon="-77.7280478"/>
      <trkpt lat="34.3223418" lon="-77.7279084"/>
      <trkpt lat="34.3222225" lon="-77.7276384"/>
      <trkpt lat="34.3221787" lon="-77.7273679"/>
      <trkpt lat="34.3221946" lon="-77.7271157"/>
      <trkpt lat="34.3221593" lon="-77.7268352"/>
      <trkpt lat="34.3220763" lon="-77.7266515"/>
      <trkpt lat="34.3219804" lon="-77.7264953"/>
      <trkpt lat="34.3218951" lon="-77.7264477"/>
      <trkpt lat="34.3218441" lon="-77.7262056"/>
      <trkpt lat="34.3217764" lon="-77.7261780"/>
      <trkpt lat="34.3216421" lon="-77.7261322"/>
      <trkpt lat="34.3214603" lon="-77.7259377"/>
      <trkpt lat="34.3213423" lon="-77.7257000"/>
      <trkpt lat="34.3212981" lon="-77.7255618"/>
      <trkpt lat="34.3212817" lon="-77.7255964"/>
      <trkpt lat="34.3213020" lon="-77.7256873"/>
      <trkpt lat="34.3213602" lon="-77.7258462"/>
      <trkpt lat="34.3215565" lon="-77.7260983"/>
      <trkpt lat="34.3216620" lon="-77.7262434"/>
      <trkpt lat="34.3218438" lon="-77.7263886"/>
      <trkpt lat="34.3219151" lon="-77.7264844"/>
      <trkpt lat="34.3220090" lon="-77.7265858"/>
      <trkpt lat="34.3220790" lon="-77.7267022"/>
      <trkpt lat="34.3221496" lon="-77.7269573"/>
      <trkpt lat="34.3221705" lon="-77.7271888"/>
      <trkpt lat="34.3221430" lon="-77.7273904"/>
      <trkpt lat="34.3221529" lon="-77.7274735"/>
      <trkpt lat="34.3221862" lon="-77.7275849"/>
      <trkpt lat="34.3221961" lon="-77.7276654"/>
      <trkpt lat="34.3221297" lon="-77.7278853"/>
      <trkpt lat="34.3220832" lon="-77.7279832"/>
      <trkpt lat="34.3220311" lon="-77.7281039"/>
      <trkpt lat="34.3219514" lon="-77.7282421"/>
      <trkpt lat="34.3218794" lon="-77.7283118"/>
      <trkpt lat="34.3217941" lon="-77.7284043"/>
      <trkpt lat="34.3216855" lon="-77.7284861"/>
      <trkpt lat="34.3216094" lon="-77.7285493"/>
      <trkpt lat="34.3215238" lon="-77.7285826"/>
      <trkpt lat="34.3214068" lon="-77.7286418"/>
      <trkpt lat="34.3213289" lon="-77.7287020"/>
      <trkpt lat="34.3212647" lon="-77.7288441"/>
      <trkpt lat="34.3212159" lon="-77.7289904"/>
      <trkpt lat="34.3211558" lon="-77.7291324"/>
      <trkpt lat="34.3210871" lon="-77.7292233"/>
      <trkpt lat="34.3210005" lon="-77.7292905"/>
      <trkpt lat="34.3209305" lon="-77.7293215"/>
      <trkpt lat="34.3208266" lon="-77.7293470"/>
      <trkpt lat="34.3207281" lon="-77.7293659"/>
      <trkpt lat="34.3206312" lon="-77.7293640"/>
      <trkpt lat="34.3205148" lon="-77.7293512"/>
      <trkpt lat="34.3204018" lon="-77.7293458"/>
      <trkpt lat="34.3203104" lon="-77.7293541"/>
      <trkpt lat="34.3202634" lon="-77.7293887"/>
      <trkpt lat="34.3202512" lon="-77.7294933"/>
      <trkpt lat="34.3202819" lon="-77.7296020"/>
      <trkpt lat="34.3203586" lon="-77.7298084"/>
      <trkpt lat="34.3204727" lon="-77.7300874"/>
      <trkpt lat="34.3205015" lon="-77.7301746"/>
      <trkpt lat="34.3205093" lon="-77.7302376"/>
      <trkpt lat="34.3204960" lon="-77.7303302"/>
      <trkpt lat="34.3204749" lon="-77.7304187"/>
      <trkpt lat="34.3204102" lon="-77.7305029"/>
      <trkpt lat="34.3203520" lon="-77.7305769"/>
      <trkpt lat="34.3202911" lon="-77.7306815"/>
      <trkpt lat="34.3202578" lon="-77.7308424"/>
      <trkpt lat="34.3202645" lon="-77.7310194"/>
      <trkpt lat="34.3202612" lon="-77.7312139"/>
      <trkpt lat="34.3202807" lon="-77.7314167"/>
      <trkpt lat="34.3202849" lon="-77.7314997"/>
      <trkpt lat="34.3202783" lon="-77.7316174"/>
      <trkpt lat="34.3202522" lon="-77.7317428"/>
      <trkpt lat="34.3202091" lon="-77.7319340"/>
      <trkpt lat="34.3201648" lon="-77.7321312"/>
      <trkpt lat="34.3201205" lon="-77.7322760"/>
      <trkpt lat="34.3200889" lon="-77.7323626"/>
      <trkpt lat="34.3200798" lon="-77.7324620"/>
      <trkpt lat="34.3200843" lon="-77.7325286"/>
      <trkpt lat="34.3201048" lon="-77.7326252"/>
      <trkpt lat="34.3201319" lon="-77.7327419"/>
      <trkpt lat="34.3201419" lon="-77.7328177"/>
      <trkpt lat="34.3201478" lon="-77.7328980"/>
      <trkpt lat="34.3201441" lon="-77.7329746"/>
      <trkpt lat="34.3201474" lon="-77.7330470"/>
      <trkpt lat="34.3201497" lon="-77.7331468"/>
      <trkpt lat="34.3201569" lon="-77.7332132"/>
      <trkpt lat="34.3201463" lon="-77.7333285"/>
      <trkpt lat="34.3200893" lon="-77.7334802"/>
      <trkpt lat="34.3200112" lon="-77.7337343"/>
      <trkpt lat="34.3199747" lon="-77.7338174"/>
      <trkpt lat="34.3199154" lon="-77.7339978"/>
      <trkpt lat="34.3198949" lon="-77.7340173"/>
      <trkpt lat="34.3198600" lon="-77.7340535"/>
      <trkpt lat="34.3198091" lon="-77.7340588"/>
      <trkpt lat="34.3197509" lon="-77.7340535"/>
      <trkpt lat="34.3196785" lon="-77.7340477"/>
      <trkpt lat="34.3196221" lon="-77.7340262"/>
      <trkpt lat="34.3195645" lon="-77.7340114"/>
      <trkpt lat="34.3195235" lon="-77.7340195"/>
      <trkpt lat="34.3194467" lon="-77.7340658"/>
      <trkpt lat="34.3193838" lon="-77.7341023"/>
      <trkpt lat="34.3193135" lon="-77.7341136"/>
      <trkpt lat="34.3191409" lon="-77.7341357"/>
      <trkpt lat="34.3190561" lon="-77.7341643"/>
      <trkpt lat="34.3189620" lon="-77.7341925"/>
      <trkpt lat="34.3188512" lon="-77.7341831"/>
      <trkpt lat="34.3186839" lon="-77.7342046"/>
      <trkpt lat="34.3186403" lon="-77.7342019"/>
      <trkpt lat="34.3185621" lon="-77.7342192"/>
      <trkpt lat="34.3184400" lon="-77.7342887"/>
      <trkpt lat="34.3183290" lon="-77.7344034"/>
      <trkpt lat="34.3182675" lon="-77.7344835"/>
      <trkpt lat="34.3181840" lon="-77.7345594"/>
      <trkpt lat="34.3181135" lon="-77.7345825"/>
      <trkpt lat="34.3180282" lon="-77.7345422"/>
      <trkpt lat="34.3179906" lon="-77.7344835"/>
      <trkpt lat="34.3179194" lon="-77.7343939"/>
      <trkpt lat="34.3178495" lon="-77.7343019"/>
      <trkpt lat="34.3178211" lon="-77.7342568"/>
      <trkpt lat="34.3177956" lon="-77.7341254"/>
      <trkpt lat="34.3177546" lon="-77.7340557"/>
      <trkpt lat="34.3177004" lon="-77.7339752"/>
      <trkpt lat="34.3176350" lon="-77.7339417"/>
      <trkpt lat="34.3175852" lon="-77.7339363"/>
      <trkpt lat="34.3175054" lon="-77.7340208"/>
      <trkpt lat="34.3174456" lon="-77.7341375"/>
      <trkpt lat="34.3173916" lon="-77.7342230"/>
      <trkpt lat="34.3173249" lon="-77.7342904"/>
      <trkpt lat="34.3172374" lon="-77.7343481"/>
      <trkpt lat="34.3171595" lon="-77.7344219"/>
      <trkpt lat="34.3170568" lon="-77.7344862"/>
      <trkpt lat="34.3170134" lon="-77.7345097"/>
      <trkpt lat="34.3169437" lon="-77.7345140"/>
      <trkpt lat="34.3168098" lon="-77.7346029"/>
      <trkpt lat="34.3167744" lon="-77.7346457"/>
      <trkpt lat="34.3167190" lon="-77.7346726"/>
      <trkpt lat="34.3166791" lon="-77.7346699"/>
      <trkpt lat="34.3166337" lon="-77.7346323"/>
      <trkpt lat="34.3165240" lon="-77.7344540"/>
      <trkpt lat="34.3164292" lon="-77.7342924"/>
      <trkpt lat="34.3163789" lon="-77.7342005"/>
      <trkpt lat="34.3163523" lon="-77.7341187"/>
      <trkpt lat="34.3163183" lon="-77.7340194"/>
      <trkpt lat="34.3162659" lon="-77.7339390"/>
      <trkpt lat="34.3162083" lon="-77.7338706"/>
      <trkpt lat="34.3161718" lon="-77.7337928"/>
      <trkpt lat="34.3161341" lon="-77.7337057"/>
      <trkpt lat="34.3160995" lon="-77.7335826"/>
      <trkpt lat="34.3160810" lon="-77.7335555"/>
      <trkpt lat="34.3160165" lon="-77.7335441"/>
      <trkpt lat="34.3159392" lon="-77.7335273"/>
      <trkpt lat="34.3158987" lon="-77.7334861"/>
      <trkpt lat="34.3158539" lon="-77.7333985"/>
      <trkpt lat="34.3158683" lon="-77.7333113"/>
      <trkpt lat="34.3158971" lon="-77.7332080"/>
      <trkpt lat="34.3159292" lon="-77.7331624"/>
      <trkpt lat="34.3159602" lon="-77.7331021"/>
      <trkpt lat="34.3159523" lon="-77.7330434"/>
      <trkpt lat="34.3159281" lon="-77.7329882"/>
      <trkpt lat="34.3158672" lon="-77.7329533"/>
      <trkpt lat="34.3158162" lon="-77.7329225"/>
      <trkpt lat="34.3157520" lon="-77.7328232"/>
      <trkpt lat="34.3156689" lon="-77.7327548"/>
      <trkpt lat="34.3156423" lon="-77.7326744"/>
      <trkpt lat="34.3156789" lon="-77.7325657"/>
      <trkpt lat="34.3157154" lon="-77.7324303"/>
      <trkpt lat="34.3157442" lon="-77.7323015"/>
      <trkpt lat="34.3157420" lon="-77.7322009"/>
      <trkpt lat="34.3156926" lon="-77.7320894"/>
      <trkpt lat="34.3156759" lon="-77.7320103"/>
      <trkpt lat="34.3156479" lon="-77.7318764"/>
      <trkpt lat="34.3156013" lon="-77.7317570"/>
      <trkpt lat="34.3155936" lon="-77.7316686"/>
      <trkpt lat="34.3156047" lon="-77.7316096"/>
      <trkpt lat="34.3156711" lon="-77.7315505"/>
      <trkpt lat="34.3157398" lon="-77.7314499"/>
      <trkpt lat="34.3157650" lon="-77.7314024"/>
      <trkpt lat="34.3157309" lon="-77.7312515"/>
      <trkpt lat="34.3157031" lon="-77.7312056"/>
      <trkpt lat="34.3156523" lon="-77.7311428"/>
      <trkpt lat="34.3156024" lon="-77.7311105"/>
      <trkpt lat="34.3155138" lon="-77.7310703"/>
      <trkpt lat="34.3154019" lon="-77.7310462"/>
      <trkpt lat="34.3153344" lon="-77.7310354"/>
      <trkpt lat="34.3152768" lon="-77.7310354"/>
      <trkpt lat="34.3151522" lon="-77.7310586"/>
      <trkpt lat="34.3150818" lon="-77.7310716"/>
      <trkpt lat="34.3149700" lon="-77.7310797"/>
      <trkpt lat="34.3148924" lon="-77.7310314"/>
      <trkpt lat="34.3149035" lon="-77.7308825"/>
      <trkpt lat="34.3149334" lon="-77.7307432"/>
      <trkpt lat="34.3149567" lon="-77.7306064"/>
      <trkpt lat="34.3149744" lon="-77.7304951"/>
      <trkpt lat="34.3149751" lon="-77.7303331"/>
      <trkpt lat="34.3149367" lon="-77.7302389"/>
      <trkpt lat="34.3148570" lon="-77.7302000"/>
      <trkpt lat="34.3146952" lon="-77.7302282"/>
      <trkpt lat="34.3146532" lon="-77.7303167"/>
      <trkpt lat="34.3146210" lon="-77.7304535"/>
      <trkpt lat="34.3145978" lon="-77.7305447"/>
      <trkpt lat="34.3145389" lon="-77.7306447"/>
      <trkpt lat="34.3144722" lon="-77.7307517"/>
      <trkpt lat="34.3144084" lon="-77.7308705"/>
      <trkpt lat="34.3143685" lon="-77.7309308"/>
      <trkpt lat="34.3143174" lon="-77.7310446"/>
      <trkpt lat="34.3143031" lon="-77.7312246"/>
      <trkpt lat="34.3143095" lon="-77.7313679"/>
      <trkpt lat="34.3143397" lon="-77.7314660"/>
      <trkpt lat="34.3144228" lon="-77.7316432"/>
      <trkpt lat="34.3146445" lon="-77.7320504"/>
      <trkpt lat="34.3148071" lon="-77.7323310"/>
      <trkpt lat="34.3150231" lon="-77.7326382"/>
      <trkpt lat="34.3151007" lon="-77.7327709"/>
      <trkpt lat="34.3151450" lon="-77.7328728"/>
      <trkpt lat="34.3152203" lon="-77.7330579"/>
      <trkpt lat="34.3154141" lon="-77.7333381"/>
      <trkpt lat="34.3155969" lon="-77.7335809"/>
      <trkpt lat="34.3156832" lon="-77.7337042"/>
      <trkpt lat="34.3157882" lon="-77.7339568"/>
      <trkpt lat="34.3159150" lon="-77.7341228"/>
      <trkpt lat="34.3160178" lon="-77.7342864"/>
      <trkpt lat="34.3161386" lon="-77.7345358"/>
      <trkpt lat="34.3162238" lon="-77.7346780"/>
      <trkpt lat="34.3163158" lon="-77.7348711"/>
      <trkpt lat="34.3163826" lon="-77.7349515"/>
      <trkpt lat="34.3164553" lon="-77.7351192"/>
      <trkpt lat="34.3166270" lon="-77.7353458"/>
      <trkpt lat="34.3167577" lon="-77.7354879"/>
      <trkpt lat="34.3169649" lon="-77.7355201"/>
      <trkpt lat="34.3170291" lon="-77.7357414"/>
      <trkpt lat="34.3170756" lon="-77.7358581"/>
      <trkpt lat="34.3171328" lon="-77.7360653"/>
      <trkpt lat="34.3173315" lon="-77.7364563"/>
      <trkpt lat="34.3174735" lon="-77.7367292"/>
      <trkpt lat="34.3175154" lon="-77.7368666"/>
      <trkpt lat="34.3176106" lon="-77.7369457"/>
      <trkpt lat="34.3179064" lon="-77.7373831"/>
      <trkpt lat="34.3181207" lon="-77.7376987"/>
      <trkpt lat="34.3182198" lon="-77.7378375"/>
      <trkpt lat="34.3182808" lon="-77.7379274"/>
      <trkpt lat="34.3183605" lon="-77.7380400"/>
      <trkpt lat="34.3184515" lon="-77.7381681"/>
      <trkpt lat="34.3185521" lon="-77.7383861"/>
      <trkpt lat="34.3186329" lon="-77.7385317"/>
      <trkpt lat="34.3186939" lon="-77.7386262"/>
      <trkpt lat="34.3187615" lon="-77.7386973"/>
      <trkpt lat="34.3188069" lon="-77.7386476"/>
      <trkpt lat="34.3188091" lon="-77.7384733"/>
      <trkpt lat="34.3188279" lon="-77.7383110"/>
      <trkpt lat="34.3188246" lon="-77.7381688"/>
      <trkpt lat="34.3188401" lon="-77.7379810"/>
      <trkpt lat="34.3188401" lon="-77.7378576"/>
      <trkpt lat="34.3188667" lon="-77.7377866"/>
      <trkpt lat="34.3189344" lon="-77.7378216"/>
      <trkpt lat="34.3190052" lon="-77.7378429"/>
      <trkpt lat="34.3191222" lon="-77.7378112"/>
      <trkpt lat="34.3191445" lon="-77.7377954"/>
      <trkpt lat="34.3191941" lon="-77.7378035"/>
      <trkpt lat="34.3193109" lon="-77.7377329"/>
      <trkpt lat="34.3195269" lon="-77.7376324"/>
      <trkpt lat="34.3196786" lon="-77.7375694"/>
      <trkpt lat="34.3198247" lon="-77.7374881"/>
      <trkpt lat="34.3198724" lon="-77.7374931"/>
      <trkpt lat="34.3199505" lon="-77.7375052"/>
      <trkpt lat="34.3200519" lon="-77.7374635"/>
      <trkpt lat="34.3201272" lon="-77.7374193"/>
      <trkpt lat="34.3201837" lon="-77.7374475"/>
      <trkpt lat="34.3202546" lon="-77.7374931"/>
      <trkpt lat="34.3204207" lon="-77.7376271"/>
      <trkpt lat="34.3205381" lon="-77.7377021"/>
      <trkpt lat="34.3206263" lon="-77.7377160"/>
      <trkpt lat="34.3207286" lon="-77.7377208"/>
      <trkpt lat="34.3208017" lon="-77.7377275"/>
      <trkpt lat="34.3208907" lon="-77.7377489"/>
      <trkpt lat="34.3209694" lon="-77.7376471"/>
      <trkpt lat="34.3210299" lon="-77.7375091"/>
      <trkpt lat="34.3210919" lon="-77.7373361"/>
      <trkpt lat="34.3211345" lon="-77.7372564"/>
      <trkpt lat="34.3211750" lon="-77.7371685"/>
      <trkpt lat="34.3212215" lon="-77.7370518"/>
      <trkpt lat="34.3212492" lon="-77.7369819"/>
      <trkpt lat="34.3212870" lon="-77.7369475"/>
      <trkpt lat="34.3213747" lon="-77.7369616"/>
      <trkpt lat="34.3214319" lon="-77.7369954"/>
      <trkpt lat="34.3215282" lon="-77.7370373"/>
      <trkpt lat="34.3215848" lon="-77.7370760"/>
      <trkpt lat="34.3216524" lon="-77.7370880"/>
      <trkpt lat="34.3217620" lon="-77.7370773"/>
      <trkpt lat="34.3218351" lon="-77.7370693"/>
      <trkpt lat="34.3219359" lon="-77.7370398"/>
      <trkpt lat="34.3220566" lon="-77.7370008"/>
      <trkpt lat="34.3221791" lon="-77.7369822"/>
      <trkpt lat="34.3222142" lon="-77.7369937"/>
      <trkpt lat="34.3222675" lon="-77.7370391"/>
      <trkpt lat="34.3223147" lon="-77.7371336"/>
      <trkpt lat="34.3223637" lon="-77.7372121"/>
      <trkpt lat="34.3224181" lon="-77.7373159"/>
      <trkpt lat="34.3224785" lon="-77.7374084"/>
      <trkpt lat="34.3225584" lon="-77.7375305"/>
      <trkpt lat="34.3226193" lon="-77.7375841"/>
      <trkpt lat="34.3226587" lon="-77.7375914"/>
      <trkpt lat="34.3226865" lon="-77.7375862"/>
      <trkpt lat="34.3227212" lon="-77.7375292"/>
      <trkpt lat="34.3227778" lon="-77.7374623"/>
      <trkpt lat="34.3228360" lon="-77.7374729"/>
      <trkpt lat="34.3228718" lon="-77.7375078"/>
      <trkpt lat="34.3229239" lon="-77.7375332"/>
      <trkpt lat="34.3229560" lon="-77.7375359"/>
      <trkpt lat="34.3230555" lon="-77.7375071"/>
      <trkpt lat="34.3231421" lon="-77.7375011"/>
      <trkpt lat="34.3232073" lon="-77.7375253"/>
      <trkpt lat="34.3232894" lon="-77.7375654"/>
      <trkpt lat="34.3233595" lon="-77.7375870"/>
      <trkpt lat="34.3234179" lon="-77.7375922"/>
      <trkpt lat="34.3234710" lon="-77.7376123"/>
      <trkpt lat="34.3235375" lon="-77.7376739"/>
      <trkpt lat="34.3236272" lon="-77.7377892"/>
      <trkpt lat="34.3236593" lon="-77.7378201"/>
      <trkpt lat="34.3237411" lon="-77.7378543"/>
      <trkpt lat="34.3237615" lon="-77.7378649"/>
      <trkpt lat="34.3237933" lon="-77.7379126"/>
      <trkpt lat="34.3238221" lon="-77.7379792"/>
      <trkpt lat="34.3238620" lon="-77.7380145"/>
      <trkpt lat="34.3239229" lon="-77.7380280"/>
      <trkpt lat="34.3239860" lon="-77.7380092"/>
      <trkpt lat="34.3240320" lon="-77.7379648"/>
      <trkpt lat="34.3240735" lon="-77.7379461"/>
      <trkpt lat="34.3241455" lon="-77.7379368"/>
      <trkpt lat="34.3241965" lon="-77.7379475"/>
      <trkpt lat="34.3242552" lon="-77.7379797"/>
      <trkpt lat="34.3242995" lon="-77.7380481"/>
      <trkpt lat="34.3243344" lon="-77.7380951"/>
      <trkpt lat="34.3243992" lon="-77.7381473"/>
      <trkpt lat="34.3244623" lon="-77.7381835"/>
      <trkpt lat="34.3245033" lon="-77.7382139"/>
      <trkpt lat="34.3245553" lon="-77.7382158"/>
      <trkpt lat="34.3245985" lon="-77.7382279"/>
      <trkpt lat="34.3246249" lon="-77.7382719"/>
      <trkpt lat="34.3246514" lon="-77.7383052"/>
      <trkpt lat="34.3246749" lon="-77.7383405"/>
      <trkpt lat="34.3247026" lon="-77.7383566"/>
      <trkpt lat="34.3247414" lon="-77.7383553"/>
      <trkpt lat="34.3247680" lon="-77.7383285"/>
      <trkpt lat="34.3247824" lon="-77.7382198"/>
      <trkpt lat="34.3247877" lon="-77.7380924"/>
      <trkpt lat="34.3247883" lon="-77.7380353"/>
      <trkpt lat="34.3248095" lon="-77.7379194"/>
      <trkpt lat="34.3248217" lon="-77.7378332"/>
      <trkpt lat="34.3248476" lon="-77.7377164"/>
      <trkpt lat="34.3248599" lon="-77.7376190"/>
      <trkpt lat="34.3249031" lon="-77.7375359"/>
      <trkpt lat="34.3248898" lon="-77.7374743"/>
      <trkpt lat="34.3249053" lon="-77.7372503"/>
      <trkpt lat="34.3249186" lon="-77.7371055"/>
      <trkpt lat="34.3249042" lon="-77.7369927"/>
      <trkpt lat="34.3249142" lon="-77.7368652"/>
      <trkpt lat="34.3249197" lon="-77.7367780"/>
      <trkpt lat="34.3249208" lon="-77.7366681"/>
      <trkpt lat="34.3249397" lon="-77.7364938"/>
      <trkpt lat="34.3249397" lon="-77.7363745"/>
      <trkpt lat="34.3249331" lon="-77.7362718"/>
      <trkpt lat="34.3249142" lon="-77.7361773"/>
      <trkpt lat="34.3249020" lon="-77.7360392"/>
      <trkpt lat="34.3249109" lon="-77.7359212"/>
      <trkpt lat="34.3249131" lon="-77.7358178"/>
      <trkpt lat="34.3249142" lon="-77.7356622"/>
      <trkpt lat="34.3249175" lon="-77.7355322"/>
      <trkpt lat="34.3249297" lon="-77.7354343"/>
      <trkpt lat="34.3249452" lon="-77.7353150"/>
      <trkpt lat="34.3249762" lon="-77.7350977"/>
      <trkpt lat="34.3249729" lon="-77.7349422"/>
      <trkpt lat="34.3248610" lon="-77.7348992"/>
      <trkpt lat="34.3248666" lon="-77.7347169"/>
      <trkpt lat="34.3247912" lon="-77.7346096"/>
      <trkpt lat="34.3247325" lon="-77.7344902"/>
      <trkpt lat="34.3247181" lon="-77.7343588"/>
      <trkpt lat="34.3246871" lon="-77.7342113"/>
      <trkpt lat="34.3246329" lon="-77.7340249"/>
      <trkpt lat="34.3245985" lon="-77.7339055"/>
      <trkpt lat="34.3245928" lon="-77.7337103"/>
      <trkpt lat="34.3245952" lon="-77.7335850"/>
      <trkpt lat="34.3246373" lon="-77.7335273"/>
      <trkpt lat="34.3247037" lon="-77.7334400"/>
      <trkpt lat="34.3248101" lon="-77.7333783"/>
      <trkpt lat="34.3248843" lon="-77.7333234"/>
      <trkpt lat="34.3249884" lon="-77.7332590"/>
      <trkpt lat="34.3250626" lon="-77.7332027"/>
      <trkpt lat="34.3251468" lon="-77.7331490"/>
      <trkpt lat="34.3253339" lon="-77.7330249"/>
      <trkpt lat="34.3254357" lon="-77.7330358"/>
      <trkpt lat="34.3255333" lon="-77.7330566"/>
      <trkpt lat="34.3256463" lon="-77.7330512"/>
      <trkpt lat="34.3257382" lon="-77.7330123"/>
      <trkpt lat="34.3258091" lon="-77.7329565"/>
      <trkpt lat="34.3260484" lon="-77.7327887"/>
      <trkpt lat="34.3261236" lon="-77.7327267"/>
      <trkpt lat="34.3262543" lon="-77.7326301"/>
      <trkpt lat="34.3263916" lon="-77.7325550"/>
      <trkpt lat="34.3265102" lon="-77.7324517"/>
      <trkpt lat="34.3265935" lon="-77.7323509"/>
      <trkpt lat="34.3267405" lon="-77.7320359"/>
      <trkpt lat="34.3267726" lon="-77.7319702"/>
      <trkpt lat="34.3268291" lon="-77.7317302"/>
      <trkpt lat="34.3268701" lon="-77.7315304"/>
      <trkpt lat="34.3269144" lon="-77.7314271"/>
      <trkpt lat="34.3269782" lon="-77.7313647"/>
      <trkpt lat="34.3272131" lon="-77.7312905"/>
      <trkpt lat="34.3273729" lon="-77.7312327"/>
      <trkpt lat="34.3277041" lon="-77.7310596"/>
      <trkpt lat="34.3278115" lon="-77.7310341"/>
      <trkpt lat="34.3279045" lon="-77.7310368"/>
      <trkpt lat="34.3279754" lon="-77.7310958"/>
      <trkpt lat="34.3280385" lon="-77.7311924"/>
      <trkpt lat="34.3282357" lon="-77.7315103"/>
      <trkpt lat="34.3283309" lon="-77.7316271"/>
      <trkpt lat="34.3285037" lon="-77.7317477"/>
      <trkpt lat="34.3286311" lon="-77.7318080"/>
      <trkpt lat="34.3291438" lon="-77.7320413"/>
      <trkpt lat="34.3294451" lon="-77.7321593"/>
      <trkpt lat="34.3298493" lon="-77.7323632"/>
      <trkpt lat="34.3300099" lon="-77.7324839"/>
      <trkpt lat="34.3301505" lon="-77.7326113"/>
      <trkpt lat="34.3303643" lon="-77.7327562"/>
      <trkpt lat="34.3304324" lon="-77.7328396"/>
      <trkpt lat="34.3303643" lon="-77.7330779"/>
      <trkpt lat="34.3302806" lon="-77.7333056"/>
      <trkpt lat="34.3301804" lon="-77.7333703"/>
      <trkpt lat="34.3301975" lon="-77.7334912"/>
      <trkpt lat="34.3301776" lon="-77.7336165"/>
      <trkpt lat="34.3301186" lon="-77.7337729"/>
      <trkpt lat="34.3300647" lon="-77.7339238"/>
      <trkpt lat="34.3300332" lon="-77.7340267"/>
      <trkpt lat="34.3300269" lon="-77.7341715"/>
      <trkpt lat="34.3300496" lon="-77.7343669"/>
      <trkpt lat="34.3300520" lon="-77.7345157"/>
      <trkpt lat="34.3300784" lon="-77.7346504"/>
      <trkpt lat="34.3301290" lon="-77.7347570"/>
      <trkpt lat="34.3302227" lon="-77.7348779"/>
      <trkpt lat="34.3302344" lon="-77.7349149"/>
      <trkpt lat="34.3302573" lon="-77.7351162"/>
      <trkpt lat="34.3303023" lon="-77.7352104"/>
      <trkpt lat="34.3303089" lon="-77.7353311"/>
      <trkpt lat="34.3303123" lon="-77.7354262"/>
      <trkpt lat="34.3303092" lon="-77.7355082"/>
      <trkpt lat="34.3303222" lon="-77.7356260"/>
      <trkpt lat="34.3303496" lon="-77.7357327"/>
      <trkpt lat="34.3303554" lon="-77.7357709"/>
      <trkpt lat="34.3303498" lon="-77.7358499"/>
      <trkpt lat="34.3303812" lon="-77.7358778"/>
      <trkpt lat="34.3305090" lon="-77.7359363"/>
      <trkpt lat="34.3305449" lon="-77.7359993"/>
      <trkpt lat="34.3305310" lon="-77.7360801"/>
      <trkpt lat="34.3304825" lon="-77.7361467"/>
      <trkpt lat="34.3304261" lon="-77.7361921"/>
      <trkpt lat="34.3303936" lon="-77.7363222"/>
      <trkpt lat="34.3303608" lon="-77.7364385"/>
      <trkpt lat="34.3303232" lon="-77.7365447"/>
      <trkpt lat="34.3302624" lon="-77.7366399"/>
      <trkpt lat="34.3302463" lon="-77.7366889"/>
      <trkpt lat="34.3302293" lon="-77.7367561"/>
      <trkpt lat="34.3302722" lon="-77.7368125"/>
      <trkpt lat="34.3303216" lon="-77.7368677"/>
      <trkpt lat="34.3303474" lon="-77.7369407"/>
      <trkpt lat="34.3303599" lon="-77.7370398"/>
      <trkpt lat="34.3303233" lon="-77.7370948"/>
      <trkpt lat="34.3303077" lon="-77.7371398"/>
      <trkpt lat="34.3303093" lon="-77.7372260"/>
      <trkpt lat="34.3303579" lon="-77.7372799"/>
      <trkpt lat="34.3304283" lon="-77.7373090"/>
      <trkpt lat="34.3304728" lon="-77.7373643"/>
      <trkpt lat="34.3305038" lon="-77.7374689"/>
      <trkpt lat="34.3305016" lon="-77.7375466"/>
      <trkpt lat="34.3304883" lon="-77.7376967"/>
      <trkpt lat="34.3304795" lon="-77.7378925"/>
      <trkpt lat="34.3304485" lon="-77.7380239"/>
      <trkpt lat="34.3304507" lon="-77.7382118"/>
      <trkpt lat="34.3304728" lon="-77.7383808"/>
      <trkpt lat="34.3304640" lon="-77.7384451"/>
      <trkpt lat="34.3304086" lon="-77.7384907"/>
      <trkpt lat="34.3303421" lon="-77.7385015"/>
      <trkpt lat="34.3302535" lon="-77.7384854"/>
      <trkpt lat="34.3301118" lon="-77.7384585"/>
      <trkpt lat="34.3300852" lon="-77.7385149"/>
      <trkpt lat="34.3301206" lon="-77.7386919"/>
      <trkpt lat="34.3301605" lon="-77.7389654"/>
      <trkpt lat="34.3303200" lon="-77.7391800"/>
      <trkpt lat="34.3303643" lon="-77.7393060"/>
      <trkpt lat="34.3303909" lon="-77.7395127"/>
      <trkpt lat="34.3304640" lon="-77.7396494"/>
      <trkpt lat="34.3306035" lon="-77.7396682"/>
      <trkpt lat="34.3306832" lon="-77.7396709"/>
      <trkpt lat="34.3307342" lon="-77.7395717"/>
      <trkpt lat="34.3307541" lon="-77.7394027"/>
      <trkpt lat="34.3307785" lon="-77.7392309"/>
      <trkpt lat="34.3307984" lon="-77.7390673"/>
      <trkpt lat="34.3308095" lon="-77.7389868"/>
      <trkpt lat="34.3308693" lon="-77.7388635"/>
      <trkpt lat="34.3309535" lon="-77.7387616"/>
      <trkpt lat="34.3310133" lon="-77.7387241"/>
      <trkpt lat="34.3310797" lon="-77.7387080"/>
      <trkpt lat="34.3311373" lon="-77.7387134"/>
      <trkpt lat="34.3311705" lon="-77.7387643"/>
      <trkpt lat="34.3311816" lon="-77.7388930"/>
      <trkpt lat="34.3311794" lon="-77.7389868"/>
      <trkpt lat="34.3311595" lon="-77.7390619"/>
      <trkpt lat="34.3311152" lon="-77.7391773"/>
      <trkpt lat="34.3310354" lon="-77.7392282"/>
      <trkpt lat="34.3309069" lon="-77.7392846"/>
      <trkpt lat="34.3308449" lon="-77.7393328"/>
      <trkpt lat="34.3308161" lon="-77.7393812"/>
      <trkpt lat="34.3307918" lon="-77.7394536"/>
      <trkpt lat="34.3307858" lon="-77.7395395"/>
      <trkpt lat="34.3307962" lon="-77.7396253"/>
    </trkseg>
  </trk>
</gpx>
